<?xml version='1.0' encoding='utf-8'?>
<q:quakeml xmlns:q="http://quakeml.org/xmlns/quakeml/1.2" xmlns="http://quakeml.org/xmlns/bed/1.2" xmlns:catalog="http://anss.org/xmlns/catalog/0.1">
  <eventParameters publicID="quakeml:uw.anss.org/Event/UW/61965081#171562217218">
    <creationInfo>
      <agencyID>UW</agencyID>
      <creationTime>2024-05-13T17:42:52.180000Z</creationTime>
    </creationInfo>
    <event publicID="quakeml:uw.anss.org/Event/UW/61965081" catalog:datasource="uw" catalog:dataid="uw61965081" catalog:eventsource="uw" catalog:eventid="61965081">
      <preferredOriginID>quakeml:uw.anss.org/Origin/UW/3270093</preferredOriginID>
      <preferredMagnitudeID>quakeml:uw.anss.org/Netmag/UW/3276948</preferredMagnitudeID>
      <type>earthquake</type>
      <creationInfo>
        <agencyID>UW</agencyID>
        <creationTime>2024-05-13T17:37:51.000000Z</creationTime>
        <version>7</version>
      </creationInfo>
      <origin publicID="quakeml:uw.anss.org/Origin/UW/3270093" catalog:datasource="uw" catalog:dataid="uw61965081" catalog:eventsource="uw" catalog:eventid="61965081">
        <time>
          <value>2023-10-09T02:21:08.960000Z</value>
        </time>
        <latitude>
          <value>48.040166666666664</value>
        </latitude>
        <longitude>
          <value>-122.73066666666666</value>
        </longitude>
        <depth>
          <value>54950.0</value>
          <uncertainty>360.0</uncertainty>
        </depth>
        <depthType>from location</depthType>
        <timeFixed>false</timeFixed>
        <epicenterFixed>false</epicenterFixed>
        <methodID>smi:uw.anss.org/origin/HYP2000</methodID>
        <quality>
          <associatedPhaseCount>428</associatedPhaseCount>
          <usedPhaseCount>191</usedPhaseCount>
          <associatedStationCount>379</associatedStationCount>
          <usedStationCount>149</usedStationCount>
          <standardError>0.19</standardError>
          <azimuthalGap>26.0</azimuthalGap>
          <secondaryAzimuthalGap>320.0</secondaryAzimuthalGap>
          <minimumDistance>0.04476</minimumDistance>
          <maximumDistance>2.719</maximumDistance>
          <medianDistance>0.9668</medianDistance>
        </quality>
        <type>hypocenter</type>
        <evaluationMode>manual</evaluationMode>
        <evaluationStatus>final</evaluationStatus>
        <creationInfo>
          <agencyID>UW</agencyID>
          <creationTime>2024-05-13T16:50:23.000000Z</creationTime>
        </creationInfo>
        <originUncertainty>
          <preferredDescription>confidence ellipsoid</preferredDescription>
          <horizontalUncertainty>230.0</horizontalUncertainty>
          <confidenceLevel>95.0</confidenceLevel>
          <confidenceEllipsoid>
            <semiMajorAxisLength>864.0</semiMajorAxisLength>
            <semiMinorAxisLength>456.0</semiMinorAxisLength>
            <semiIntermediateAxisLength>552.0</semiIntermediateAxisLength>
            <majorAxisPlunge>81.0</majorAxisPlunge>
            <majorAxisAzimuth>342.0</majorAxisAzimuth>
            <majorAxisRotation>280.0</majorAxisRotation>
          </confidenceEllipsoid>
        </originUncertainty>
        <arrival publicID="quakeml:uw.anss.org/AssocArO/UW/16643353">
          <pickID>quakeml:uw.anss.org/Arrival/UW/16643353</pickID>
          <phase>P</phase>
          <timeCorrection>-0.01</timeCorrection>
          <azimuth>228.40068657966026</azimuth>
          <distance>0.04476</distance>
          <takeoffAngle>
            <value>174.0</value>
          </takeoffAngle>
          <timeResidual>-0.19</timeResidual>
          <timeWeight>0.18</timeWeight>
          <creationInfo>
            <agencyID>UW</agencyID>
            <creationTime>2024-05-13T17:37:51.000000Z</creationTime>
          </creationInfo>
        </arrival>
        <arrival publicID="quakeml:uw.anss.org/AssocArO/UW/16643358">
          <pickID>quakeml:uw.anss.org/Arrival/UW/16643358</pickID>
          <phase>S</phase>
          <timeCorrection>-0.02</timeCorrection>
          <azimuth>228.40068657966026</azimuth>
          <distance>0.04476</distance>
          <takeoffAngle>
            <value>174.0</value>
          </takeoffAngle>
          <timeResidual>0.07</timeResidual>
          <timeWeight>0.09</timeWeight>
          <creationInfo>
            <agencyID>UW</agencyID>
            <creationTime>2024-05-13T17:37:51.000000Z</creationTime>
          </creationInfo>
        </arrival>
        <arrival publicID="quakeml:uw.anss.org/AssocArO/UW/16643368">
          <pickID>quakeml:uw.anss.org/Arrival/UW/16643368</pickID>
          <phase>S</phase>
          <timeCorrection>0.46</timeCorrection>
          <azimuth>62.18369952457624</azimuth>
          <distance>0.1123</distance>
          <takeoffAngle>
            <value>165.0</value>
          </takeoffAngle>
          <timeResidual>-0.18</timeResidual>
          <timeWeight>0.09</timeWeight>
          <creationInfo>
            <agencyID>UW</agencyID>
            <creationTime>2024-05-13T17:37:51.000000Z</creationTime>
          </creationInfo>
        </arrival>
        <arrival publicID="quakeml:uw.anss.org/AssocArO/UW/16643383">
          <pickID>quakeml:uw.anss.org/Arrival/UW/16643383</pickID>
          <phase>P</phase>
          <timeCorrection>0.18</timeCorrection>
          <azimuth>101.49906548603974</azimuth>
          <distance>0.1418</distance>
          <takeoffAngle>
            <value>161.0</value>
          </takeoffAngle>
          <timeResidual>-0.31</timeResidual>
          <timeWeight>0.18</timeWeight>
          <creationInfo>
            <agencyID>UW</agencyID>
            <creationTime>2024-05-13T17:37:51.000000Z</creationTime>
          </creationInfo>
        </arrival>
        <arrival publicID="quakeml:uw.anss.org/AssocArO/UW/16643388">
          <pickID>quakeml:uw.anss.org/Arrival/UW/16643388</pickID>
          <phase>S</phase>
          <timeCorrection>0.32</timeCorrection>
          <azimuth>101.49906548603974</azimuth>
          <distance>0.1418</distance>
          <takeoffAngle>
            <value>161.0</value>
          </takeoffAngle>
          <timeResidual>-0.14</timeResidual>
          <timeWeight>0.13</timeWeight>
          <creationInfo>
            <agencyID>UW</agencyID>
            <creationTime>2024-05-13T17:37:51.000000Z</creationTime>
          </creationInfo>
        </arrival>
        <arrival publicID="quakeml:uw.anss.org/AssocArO/UW/16643393">
          <pickID>quakeml:uw.anss.org/Arrival/UW/16643393</pickID>
          <phase>P</phase>
          <timeCorrection>0.19</timeCorrection>
          <azimuth>140.8329148820211</azimuth>
          <distance>0.1715</distance>
          <takeoffAngle>
            <value>158.0</value>
          </takeoffAngle>
          <timeResidual>-0.22</timeResidual>
          <timeWeight>0.13</timeWeight>
          <creationInfo>
            <agencyID>UW</agencyID>
            <creationTime>2024-05-13T17:37:51.000000Z</creationTime>
          </creationInfo>
        </arrival>
        <arrival publicID="quakeml:uw.anss.org/AssocArO/UW/16643398">
          <pickID>quakeml:uw.anss.org/Arrival/UW/16643398</pickID>
          <phase>S</phase>
          <timeCorrection>0.34</timeCorrection>
          <azimuth>140.8329148820211</azimuth>
          <distance>0.1715</distance>
          <takeoffAngle>
            <value>158.0</value>
          </takeoffAngle>
          <timeResidual>0.11</timeResidual>
          <timeWeight>0.09</timeWeight>
          <creationInfo>
            <agencyID>UW</agencyID>
            <creationTime>2024-05-13T17:37:51.000000Z</creationTime>
          </creationInfo>
        </arrival>
        <arrival publicID="quakeml:uw.anss.org/AssocArO/UW/16643403">
          <pickID>quakeml:uw.anss.org/Arrival/UW/16643403</pickID>
          <phase>P</phase>
          <timeCorrection>-0.23</timeCorrection>
          <azimuth>151.78175050879577</azimuth>
          <distance>0.2093</distance>
          <takeoffAngle>
            <value>154.0</value>
          </takeoffAngle>
          <timeResidual>-0.09</timeResidual>
          <timeWeight>0.13</timeWeight>
          <creationInfo>
            <agencyID>UW</agencyID>
            <creationTime>2024-05-13T17:37:51.000000Z</creationTime>
          </creationInfo>
        </arrival>
        <arrival publicID="quakeml:uw.anss.org/AssocArO/UW/16643408">
          <pickID>quakeml:uw.anss.org/Arrival/UW/16643408</pickID>
          <phase>S</phase>
          <timeCorrection>0.28</timeCorrection>
          <azimuth>21.1878174923022</azimuth>
          <distance>0.1842</distance>
          <takeoffAngle>
            <value>156.0</value>
          </takeoffAngle>
          <timeResidual>0.14</timeResidual>
          <timeWeight>0.13</timeWeight>
          <creationInfo>
            <agencyID>UW</agencyID>
            <creationTime>2024-05-13T17:37:51.000000Z</creationTime>
          </creationInfo>
        </arrival>
        <arrival publicID="quakeml:uw.anss.org/AssocArO/UW/16643413">
          <pickID>quakeml:uw.anss.org/Arrival/UW/16643413</pickID>
          <phase>P</phase>
          <timeCorrection>0.28</timeCorrection>
          <azimuth>97.1628409300244</azimuth>
          <distance>0.2163</distance>
          <takeoffAngle>
            <value>153.0</value>
          </takeoffAngle>
          <timeResidual>-0.32</timeResidual>
          <timeWeight>0.13</timeWeight>
          <creationInfo>
            <agencyID>UW</agencyID>
            <creationTime>2024-05-13T17:37:51.000000Z</creationTime>
          </creationInfo>
        </arrival>
        <arrival publicID="quakeml:uw.anss.org/AssocArO/UW/16643418">
          <pickID>quakeml:uw.anss.org/Arrival/UW/16643418</pickID>
          <phase>S</phase>
          <timeCorrection>0.5</timeCorrection>
          <azimuth>97.1628409300244</azimuth>
          <distance>0.2163</distance>
          <takeoffAngle>
            <value>153.0</value>
          </takeoffAngle>
          <timeResidual>-0.17</timeResidual>
          <timeWeight>0.09</timeWeight>
          <creationInfo>
            <agencyID>UW</agencyID>
            <creationTime>2024-05-13T17:37:51.000000Z</creationTime>
          </creationInfo>
        </arrival>
        <arrival publicID="quakeml:uw.anss.org/AssocArO/UW/16643428">
          <pickID>quakeml:uw.anss.org/Arrival/UW/16643428</pickID>
          <phase>S</phase>
          <timeCorrection>0.37</timeCorrection>
          <azimuth>59.042435567602524</azimuth>
          <distance>0.2053</distance>
          <takeoffAngle>
            <value>154.0</value>
          </takeoffAngle>
          <timeResidual>0.07</timeResidual>
          <timeWeight>0.13</timeWeight>
          <creationInfo>
            <agencyID>UW</agencyID>
            <creationTime>2024-05-13T17:37:51.000000Z</creationTime>
          </creationInfo>
        </arrival>
        <arrival publicID="quakeml:uw.anss.org/AssocArO/UW/16643443">
          <pickID>quakeml:uw.anss.org/Arrival/UW/16643443</pickID>
          <phase>P</phase>
          <timeCorrection>0.31</timeCorrection>
          <azimuth>110.21024262547428</azimuth>
          <distance>0.256</distance>
          <takeoffAngle>
            <value>148.0</value>
          </takeoffAngle>
          <timeResidual>-0.37</timeResidual>
          <timeWeight>0.13</timeWeight>
          <creationInfo>
            <agencyID>UW</agencyID>
            <creationTime>2024-05-13T17:37:51.000000Z</creationTime>
          </creationInfo>
        </arrival>
        <arrival publicID="quakeml:uw.anss.org/AssocArO/UW/16643453">
          <pickID>quakeml:uw.anss.org/Arrival/UW/16643453</pickID>
          <phase>P</phase>
          <timeCorrection>0.22</timeCorrection>
          <azimuth>168.57082945194122</azimuth>
          <distance>0.2942</distance>
          <takeoffAngle>
            <value>145.0</value>
          </takeoffAngle>
          <timeResidual>-0.22</timeResidual>
          <timeWeight>0.09</timeWeight>
          <creationInfo>
            <agencyID>UW</agencyID>
            <creationTime>2024-05-13T17:37:51.000000Z</creationTime>
          </creationInfo>
        </arrival>
        <arrival publicID="quakeml:uw.anss.org/AssocArO/UW/16643463">
          <pickID>quakeml:uw.anss.org/Arrival/UW/16643463</pickID>
          <phase>S</phase>
          <timeCorrection>0.28</timeCorrection>
          <azimuth>61.795867784109475</azimuth>
          <distance>0.2873</distance>
          <takeoffAngle>
            <value>145.0</value>
          </takeoffAngle>
          <timeResidual>-0.04</timeResidual>
          <timeWeight>0.13</timeWeight>
          <creationInfo>
            <agencyID>UW</agencyID>
            <creationTime>2024-05-13T17:37:51.000000Z</creationTime>
          </creationInfo>
        </arrival>
        <arrival publicID="quakeml:uw.anss.org/AssocArO/UW/16643468">
          <pickID>quakeml:uw.anss.org/Arrival/UW/16643468</pickID>
          <phase>P</phase>
          <timeCorrection>-0.01</timeCorrection>
          <azimuth>8.051234798453436</azimuth>
          <distance>0.2707</distance>
          <takeoffAngle>
            <value>147.0</value>
          </takeoffAngle>
          <timeResidual>0.01</timeResidual>
          <timeWeight>0.18</timeWeight>
          <creationInfo>
            <agencyID>UW</agencyID>
            <creationTime>2024-05-13T17:37:51.000000Z</creationTime>
          </creationInfo>
        </arrival>
        <arrival publicID="quakeml:uw.anss.org/AssocArO/UW/16643473">
          <pickID>quakeml:uw.anss.org/Arrival/UW/16643473</pickID>
          <phase>S</phase>
          <timeCorrection>-0.02</timeCorrection>
          <azimuth>8.051234798453436</azimuth>
          <distance>0.2707</distance>
          <takeoffAngle>
            <value>147.0</value>
          </takeoffAngle>
          <timeResidual>0.04</timeResidual>
          <timeWeight>0.13</timeWeight>
          <creationInfo>
            <agencyID>UW</agencyID>
            <creationTime>2024-05-13T17:37:51.000000Z</creationTime>
          </creationInfo>
        </arrival>
        <arrival publicID="quakeml:uw.anss.org/AssocArO/UW/16643498">
          <pickID>quakeml:uw.anss.org/Arrival/UW/16643498</pickID>
          <phase>S</phase>
          <timeCorrection>0.45</timeCorrection>
          <azimuth>270.76983490423123</azimuth>
          <distance>0.2689</distance>
          <takeoffAngle>
            <value>147.0</value>
          </takeoffAngle>
          <timeResidual>0.27</timeResidual>
          <timeWeight>0.13</timeWeight>
          <creationInfo>
            <agencyID>UW</agencyID>
            <creationTime>2024-05-13T17:37:51.000000Z</creationTime>
          </creationInfo>
        </arrival>
        <arrival publicID="quakeml:uw.anss.org/AssocArO/UW/16643503">
          <pickID>quakeml:uw.anss.org/Arrival/UW/16643503</pickID>
          <phase>P</phase>
          <timeCorrection>0.21</timeCorrection>
          <azimuth>110.65285117636705</azimuth>
          <distance>0.3252</distance>
          <takeoffAngle>
            <value>142.0</value>
          </takeoffAngle>
          <timeResidual>-0.22</timeResidual>
          <timeWeight>0.13</timeWeight>
          <creationInfo>
            <agencyID>UW</agencyID>
            <creationTime>2024-05-13T17:37:51.000000Z</creationTime>
          </creationInfo>
        </arrival>
        <arrival publicID="quakeml:uw.anss.org/AssocArO/UW/16643508">
          <pickID>quakeml:uw.anss.org/Arrival/UW/16643508</pickID>
          <phase>P</phase>
          <timeCorrection>0.01</timeCorrection>
          <azimuth>52.27633106101155</azimuth>
          <distance>0.3271</distance>
          <takeoffAngle>
            <value>141.0</value>
          </takeoffAngle>
          <timeResidual>-0.01</timeResidual>
          <timeWeight>0.13</timeWeight>
          <creationInfo>
            <agencyID>UW</agencyID>
            <creationTime>2024-05-13T17:37:51.000000Z</creationTime>
          </creationInfo>
        </arrival>
        <arrival publicID="quakeml:uw.anss.org/AssocArO/UW/16643513">
          <pickID>quakeml:uw.anss.org/Arrival/UW/16643513</pickID>
          <phase>P</phase>
          <timeCorrection>0.42</timeCorrection>
          <azimuth>95.28946873859502</azimuth>
          <distance>0.3554</distance>
          <takeoffAngle>
            <value>139.0</value>
          </takeoffAngle>
          <timeResidual>-0.28</timeResidual>
          <timeWeight>0.13</timeWeight>
          <creationInfo>
            <agencyID>UW</agencyID>
            <creationTime>2024-05-13T17:37:51.000000Z</creationTime>
          </creationInfo>
        </arrival>
        <arrival publicID="quakeml:uw.anss.org/AssocArO/UW/16643518">
          <pickID>quakeml:uw.anss.org/Arrival/UW/16643518</pickID>
          <phase>P</phase>
          <timeCorrection>0.14</timeCorrection>
          <azimuth>126.09012735721183</azimuth>
          <distance>0.3639</distance>
          <takeoffAngle>
            <value>138.0</value>
          </takeoffAngle>
          <timeResidual>-0.1</timeResidual>
          <timeWeight>0.13</timeWeight>
          <creationInfo>
            <agencyID>UW</agencyID>
            <creationTime>2024-05-13T17:37:51.000000Z</creationTime>
          </creationInfo>
        </arrival>
        <arrival publicID="quakeml:uw.anss.org/AssocArO/UW/16643523">
          <pickID>quakeml:uw.anss.org/Arrival/UW/16643523</pickID>
          <phase>P</phase>
          <timeCorrection>0.14</timeCorrection>
          <azimuth>73.16630411124294</azimuth>
          <distance>0.3592</distance>
          <takeoffAngle>
            <value>138.0</value>
          </takeoffAngle>
          <timeResidual>-0.11</timeResidual>
          <timeWeight>0.18</timeWeight>
          <creationInfo>
            <agencyID>UW</agencyID>
            <creationTime>2024-05-13T17:37:51.000000Z</creationTime>
          </creationInfo>
        </arrival>
        <arrival publicID="quakeml:uw.anss.org/AssocArO/UW/16643528">
          <pickID>quakeml:uw.anss.org/Arrival/UW/16643528</pickID>
          <phase>P</phase>
          <timeCorrection>-0.08</timeCorrection>
          <azimuth>206.6893644023695</azimuth>
          <distance>0.3617</distance>
          <takeoffAngle>
            <value>138.0</value>
          </takeoffAngle>
          <timeResidual>-0.14</timeResidual>
          <timeWeight>0.13</timeWeight>
          <creationInfo>
            <agencyID>UW</agencyID>
            <creationTime>2024-05-13T17:37:51.000000Z</creationTime>
          </creationInfo>
        </arrival>
        <arrival publicID="quakeml:uw.anss.org/AssocArO/UW/16643533">
          <pickID>quakeml:uw.anss.org/Arrival/UW/16643533</pickID>
          <phase>P</phase>
          <timeCorrection>0.53</timeCorrection>
          <azimuth>157.47794769972188</azimuth>
          <distance>0.3803</distance>
          <takeoffAngle>
            <value>137.0</value>
          </takeoffAngle>
          <timeResidual>-0.09</timeResidual>
          <timeWeight>0.13</timeWeight>
          <creationInfo>
            <agencyID>UW</agencyID>
            <creationTime>2024-05-13T17:37:51.000000Z</creationTime>
          </creationInfo>
        </arrival>
        <arrival publicID="quakeml:uw.anss.org/AssocArO/UW/16643538">
          <pickID>quakeml:uw.anss.org/Arrival/UW/16643538</pickID>
          <phase>P</phase>
          <timeCorrection>0.2</timeCorrection>
          <azimuth>139.42151838614757</azimuth>
          <distance>0.3855</distance>
          <takeoffAngle>
            <value>136.0</value>
          </takeoffAngle>
          <timeResidual>0.03</timeResidual>
          <timeWeight>0.09</timeWeight>
          <creationInfo>
            <agencyID>UW</agencyID>
            <creationTime>2024-05-13T17:37:51.000000Z</creationTime>
          </creationInfo>
        </arrival>
        <arrival publicID="quakeml:uw.anss.org/AssocArO/UW/16643543">
          <pickID>quakeml:uw.anss.org/Arrival/UW/16643543</pickID>
